[{"OBJECT_NAME":"QIANFAN-62","OBJECT_ID":"2025-016H","EPOCH":"2026-03-09T23:45:46.651392","MEAN_MOTION":13.50996786,"ECCENTRICITY":0.00182649,"INCLINATION":88.9681,"RA_OF_ASC_NODE":94.0713,"ARG_OF_PERICENTER":91.7435,"MEAN_ANOMALY":268.5808,"EPHEMERIS_TYPE":0,"CLASSIFICATION_TYPE":"U","NORAD_CAT_ID":62792,"ELEMENT_SET_NO":999,"REV_AT_EPOCH":5901,"BSTAR":3.3287109e-5,"MEAN_MOTION_DOT":3.4e-7,"MEAN_MOTION_DDOT":0},{"OBJECT_NAME":"COSMOS 970 DEB","OBJECT_ID":"1977-121AD","EPOCH":"2026-03-09T20:37:28.353216","MEAN_MOTION":13.77414995,"ECCENTRICITY":0.01319476,"INCLINATION":65.8227,"RA_OF_ASC_NODE":278.3601,"ARG_OF_PERICENTER":175.6092,"MEAN_ANOMALY":184.6165,"EPHEMERIS_TYPE":0,"CLASSIFICATION_TYPE":"U","NORAD_CAT_ID":10882,"ELEMENT_SET_NO":999,"REV_AT_EPOCH":41271,"BSTAR":0.00043490643,"MEAN_MOTION_DOT":3.8e-6,"MEAN_MOTION_DDOT":0}]
